[
    {
        "Altitude(m)": 566246.2677977462,
        "Argument of Periapsis(deg)": -0.03013754771062987,
        "Eccentricity": 0.0,
        "Inclination(deg)": 97.0,
        "Latitude(deg)": 22.516900073926408,
        "Longitude(deg)": -76.03844103344001,
        "Mean Anomaly(deg)": 22.70859102558333,
        "RAAN(deg)": 30.00792940482468,
        "Satellite Name": "Starlink Shell 3 1696",
        "Satellite Number": 1696,
        "Semi-Major Axis(m)": 6938478.169268562,
        "Time(s)": 760
    },
    {
        "Altitude(m)": 566312.5319761174,
        "Argument of Periapsis(deg)": -0.030534094391032898,
        "Eccentricity": 0.0,
        "Inclination(deg)": 97.0,
        "Latitude(deg)": 23.13979352790863,
        "Longitude(deg)": -76.16977918521106,
        "Mean Anomaly(deg)": 23.334067223288333,
        "RAAN(deg)": 30.00803373909869,
        "Satellite Name": "Starlink Shell 3 1696",
        "Satellite Number": 1696,
        "Semi-Major Axis(m)": 6938478.169268562,
        "Time(s)": 770
    },
    {
        "Altitude(m)": 566382.0982257132,
        "Argument of Periapsis(deg)": -0.030930641071435925,
        "Eccentricity": 0.0,
        "Inclination(deg)": 97.0,
        "Latitude(deg)": 23.76258675869399,
        "Longitude(deg)": -76.30194738883891,
        "Mean Anomaly(deg)": 23.95954342099335,
        "RAAN(deg)": 30.008138073372695,
        "Satellite Name": "Starlink Shell 3 1696",
        "Satellite Number": 1696,
        "Semi-Major Axis(m)": 6938478.169268562,
        "Time(s)": 780
    },
    {
        "Altitude(m)": 566454.9061815435,
        "Argument of Periapsis(deg)": -0.031327187751838945,
        "Eccentricity": 0.0,
        "Inclination(deg)": 97.0,
        "Latitude(deg)": 24.385276395794765,
        "Longitude(deg)": -76.43497830026156,
        "Mean Anomaly(deg)": 24.5850196186984,
        "RAAN(deg)": 30.008242407646705,
        "Satellite Name": "Starlink Shell 3 1696",
        "Satellite Number": 1696,
        "Semi-Major Axis(m)": 6938478.169268562,
        "Time(s)": 790
    },
    {
        "Altitude(m)": 566530.8940557247,
        "Argument of Periapsis(deg)": -0.031723734432241975,
        "Eccentricity": 0.0,
        "Inclination(deg)": 97.0,
        "Latitude(deg)": 25.007859035095628,
        "Longitude(deg)": -76.56890611048728,
        "Mean Anomaly(deg)": 25.21049581640346,
        "RAAN(deg)": 30.008346741920718,
        "Satellite Name": "Starlink Shell 3 1696",
        "Satellite Number": 1696,
        "Semi-Major Axis(m)": 6938478.169268562,
        "Time(s)": 800
    },
    {
        "Altitude(m)": 566609.998671445,
        "Argument of Periapsis(deg)": -0.032120281112645,
        "Eccentricity": 0.0,
        "Inclination(deg)": 97.0,
        "Latitude(deg)": 25.63033123607795,
        "Longitude(deg)": -76.70376609592472,
        "Mean Anomaly(deg)": 25.835972014108524,
        "RAAN(deg)": 30.00845107619472,
        "Satellite Name": "Starlink Shell 3 1696",
        "Satellite Number": 1696,
        "Semi-Major Axis(m)": 6938478.169268562,
        "Time(s)": 810
    },
    {
        "Altitude(m)": 566692.155497613,
        "Argument of Periapsis(deg)": -0.03251682779304802,
        "Eccentricity": 0.0,
        "Inclination(deg)": 97.0,
        "Latitude(deg)": 26.252689518842438,
        "Longitude(deg)": -76.83959417166629,
        "Mean Anomaly(deg)": 26.461448211813526,
        "RAAN(deg)": 30.008555410468734,
        "Satellite Name": "Starlink Shell 3 1696",
        "Satellite Number": 1696,
        "Semi-Major Axis(m)": 6938478.169268562,
        "Time(s)": 820
    },
    {
        "Altitude(m)": 566777.2986840867,
        "Argument of Periapsis(deg)": -0.032913374473451044,
        "Eccentricity": 0.0,
        "Inclination(deg)": 97.0,
        "Latitude(deg)": 26.874930360917215,
        "Longitude(deg)": -76.97642796079944,
        "Mean Anomaly(deg)": 27.086924409518584,
        "RAAN(deg)": 30.008659744742744,
        "Satellite Name": "Starlink Shell 3 1696",
        "Satellite Number": 1696,
        "Semi-Major Axis(m)": 6938478.169268562,
        "Time(s)": 830
    },
    {
        "Altitude(m)": 566865.3610975544,
        "Argument of Periapsis(deg)": -0.03330992115385407,
        "Eccentricity": 0.0,
        "Inclination(deg)": 97.0,
        "Latitude(deg)": 27.49705019383701,
        "Longitude(deg)": -77.11430635422444,
        "Mean Anomaly(deg)": 27.712400607223643,
        "RAAN(deg)": 30.00876407901675,
        "Satellite Name": "Starlink Shell 3 1696",
        "Satellite Number": 1696,
        "Semi-Major Axis(m)": 6938478.169268562,
        "Time(s)": 840
    },
    {
        "Altitude(m)": 566956.274357982,
        "Argument of Periapsis(deg)": -0.0337064678342571,
        "Eccentricity": 0.0,
        "Inclination(deg)": 97.0,
        "Latitude(deg)": 28.119045399478505,
        "Longitude(deg)": -77.25326907408817,
        "Mean Anomaly(deg)": 28.3378768049287,
        "RAAN(deg)": 30.00886841329076,
        "Satellite Name": "Starlink Shell 3 1696",
        "Satellite Number": 1696,
        "Semi-Major Axis(m)": 6938478.169268562,
        "Time(s)": 850
    },
    {
        "Altitude(m)": 567049.9688756253,
        "Argument of Periapsis(deg)": -0.03410301451466012,
        "Eccentricity": 0.0,
        "Inclination(deg)": 97.0,
        "Latitude(deg)": 28.74091230613518,
        "Longitude(deg)": -77.39335792205864,
        "Mean Anomaly(deg)": 28.96335300263376,
        "RAAN(deg)": 30.00897274756477,
        "Satellite Name": "Starlink Shell 3 1696",
        "Satellite Number": 1696,
        "Semi-Major Axis(m)": 6938478.169268562,
        "Time(s)": 860
    },
    {
        "Altitude(m)": 567146.3738886096,
        "Argument of Periapsis(deg)": -0.034499561195063144,
        "Eccentricity": 0.0,
        "Inclination(deg)": 97.0,
        "Latitude(deg)": 29.36264718431403,
        "Longitude(deg)": -77.53461551029518,
        "Mean Anomaly(deg)": 29.588829200338758,
        "RAAN(deg)": 30.009077081838775,
        "Satellite Name": "Starlink Shell 3 1696",
        "Satellite Number": 1696,
        "Semi-Major Axis(m)": 6938478.169268562,
        "Time(s)": 870
    },
    {
        "Altitude(m)": 567245.4175010086,
        "Argument of Periapsis(deg)": -0.03489610787546617,
        "Eccentricity": 0.0,
        "Inclination(deg)": 97.0,
        "Latitude(deg)": 29.984246242235212,
        "Longitude(deg)": -77.67708651831892,
        "Mean Anomaly(deg)": 30.21430539804382,
        "RAAN(deg)": 30.009181416112785,
        "Satellite Name": "Starlink Shell 3 1696",
        "Satellite Number": 1696,
        "Semi-Major Axis(m)": 6938478.169268562,
        "Time(s)": 880
    },
    {
        "Altitude(m)": 567347.0267214575,
        "Argument of Periapsis(deg)": -0.0352926545558692,
        "Eccentricity": 0.0,
        "Inclination(deg)": 97.0,
        "Latitude(deg)": 30.60570562101365,
        "Longitude(deg)": -77.82081727368369,
        "Mean Anomaly(deg)": 30.83978159574888,
        "RAAN(deg)": 30.0092857503868,
        "Satellite Name": "Starlink Shell 3 1696",
        "Satellite Number": 1696,
        "Semi-Major Axis(m)": 6938478.169268562,
        "Time(s)": 890
    },
    {
        "Altitude(m)": 567451.1275022161,
        "Argument of Periapsis(deg)": -0.035689201236272214,
        "Eccentricity": 0.0,
        "Inclination(deg)": 97.0,
        "Latitude(deg)": 31.22702138950106,
        "Longitude(deg)": -77.96585533776506,
        "Mean Anomaly(deg)": 31.465257793453944,
        "RAAN(deg)": 30.0093900846608,
        "Satellite Name": "Starlink Shell 3 1696",
        "Satellite Number": 1696,
        "Semi-Major Axis(m)": 6938478.169268562,
        "Time(s)": 900
    },
    {
        "Altitude(m)": 567557.6447787312,
        "Argument of Periapsis(deg)": -0.036085747916675244,
        "Eccentricity": 0.0,
        "Inclination(deg)": 97.0,
        "Latitude(deg)": 31.84818953876356,
        "Longitude(deg)": -78.11225060991626,
        "Mean Anomaly(deg)": 32.09073399115899,
        "RAAN(deg)": 30.009494418934814,
        "Satellite Name": "Starlink Shell 3 1696",
        "Satellite Number": 1696,
        "Semi-Major Axis(m)": 6938478.169268562,
        "Time(s)": 910
    },
    {
        "Altitude(m)": 567666.5025095973,
        "Argument of Periapsis(deg)": -0.03648229459707827,
        "Eccentricity": 0.0,
        "Inclination(deg)": 97.0,
        "Latitude(deg)": 32.469205976169185,
        "Longitude(deg)": -78.26005492465495,
        "Mean Anomaly(deg)": 32.716210188864,
        "RAAN(deg)": 30.009598753208827,
        "Satellite Name": "Starlink Shell 3 1696",
        "Satellite Number": 1696,
        "Semi-Major Axis(m)": 6938478.169268562,
        "Time(s)": 920
    },
    {
        "Altitude(m)": 567777.6237169951,
        "Argument of Periapsis(deg)": -0.0368788412774813,
        "Eccentricity": 0.0,
        "Inclination(deg)": 97.0,
        "Latitude(deg)": 33.09006651905755,
        "Longitude(deg)": -78.40932165519665,
        "Mean Anomaly(deg)": 33.34168638656906,
        "RAAN(deg)": 30.00970308748283,
        "Satellite Name": "Starlink Shell 3 1696",
        "Satellite Number": 1696,
        "Semi-Major Axis(m)": 6938478.169268562,
        "Time(s)": 930
    },
    {
        "Altitude(m)": 567890.9305274462,
        "Argument of Periapsis(deg)": -0.037275387957884314,
        "Eccentricity": 0.0,
        "Inclination(deg)": 97.0,
        "Latitude(deg)": 33.71076688795955,
        "Longitude(deg)": -78.56010683668498,
        "Mean Anomaly(deg)": 33.96716258427412,
        "RAAN(deg)": 30.009807421756843,
        "Satellite Name": "Starlink Shell 3 1696",
        "Satellite Number": 1696,
        "Semi-Major Axis(m)": 6938478.169268562,
        "Time(s)": 940
    }
]